SKYSAT-C1               
1 41601U 16040C   26185.80090525  .00017363  00000+0  48722-3 0  9999
2 41601  96.9550 216.5680 0001502  19.1111 341.0190 15.36616961560573
LAPAN-A3                
1 41603U 16040E   26185.94381581  .00005167  00000+0  16314-3 0  9992
2 41603  97.1497 181.5076 0008710 320.4839  39.5768 15.33228050557538
GAOFEN-3                
1 41727U 16049A   26185.98349435 -.00000056  00000+0 -37152-5 0  9993
2 41727  98.4011 193.5007 0001697  93.3031 266.8353 14.42217526521211
SKYSAT-C4               
1 41771U 16058B   26185.32375483  .00022372  00000+0  41239-3 0  9994
2 41771  96.9163 206.3834 0002854 134.2708 225.8779 15.49141148548124
SKYSAT-C5               
1 41772U 16058C   26185.84011224  .00013017  00000+0  38859-3 0  9992
2 41772  97.0456 225.6942 0002198 183.2144 176.9087 15.34736407546459
SKYSAT-C2               
1 41773U 16058D   26185.77760887  .00022506  00000+0  52036-3 0  9997
2 41773  97.0161 207.2138 0002783  28.9568 331.1835 15.42495246547764
SKYSAT-C3               
1 41774U 16058E   26185.54177907  .00043204  00000+0  68379-3 0  9993
2 41774  96.8996 215.7278 0001702 134.9962 225.1431 15.53318604548807
ALSAT-1B                
1 41785U 16059C   26185.97855127  .00000210  00000+0  40650-4 0  9993
2 41785  97.7749 193.9744 0009577 160.1455 200.0128 14.72287643523194
PATHFINDER 1            
1 41787U 16059E   26185.93058554  .00000867  00000+0  15960-3 0  9993
2 41787  97.8170 184.4063 0029211 147.2028 213.0998 14.67685395522315
SCATSAT 1               
1 41790U 16059H   26185.66171479  .00001994  00000+0  26720-3 0  9997
2 41790  98.1181 249.6077 0054413 190.3648 169.6446 14.79570570104178
GOKTURK 1A              
1 41875U 16073A   26185.89389618  .00000654  00000+0  13740-3 0  9998
2 41875  98.1227  80.2893 0001395  79.0687 281.0672 14.62788393511410
RESOURCESAT-2A          
1 41877U 16074A   26185.94791215 -.00000082  00000+0 -17384-4 0  9993
2 41877  98.7521 259.3069 0002926  49.6762 310.4670 14.21606036496827
CARTOSAT-2D             
1 41948U 17008A   26185.94167020  .00005093  00000+0  24497-3 0  9998
2 41948  97.4093 244.9150 0005106 168.2149 191.9206 15.19224287520273
SENTINEL-2B             
1 42063U 17013A   26185.89979192 -.00000102  00000+0 -22384-4 0  9990
2 42063  98.5686 260.4242 0001214  89.8357 270.2965 14.30812154487174
CARTOSAT-2E             
1 42767U 17036C   26184.64211716  .00006795  00000+0  32509-3 0  9990
2 42767  97.4262 244.1738 0002490 235.4252 124.6748 15.19298181500647
FORMOSAT-5              
1 42920U 17049A   26185.91435726  .00000234  00000+0  70323-4 0  9994
2 42920  98.2250 260.8301 0012009  34.4867 325.7105 14.50905782469248
SENTINEL-5P             
1 42969U 17064A   26185.82336367  .00000098  00000+0  67553-4 0  9994
2 42969  98.7928 127.8294 0001088  92.0337 268.0964 14.19522247452068
SKYSAT-C11              
1 42987U 17068A   26185.39503623  .00040816  00000+0  52796-3 0  9995
2 42987  97.4373 334.9871 0000507 161.2582 198.8692 15.58821897485922
SKYSAT-C10              
1 42988U 17068B   26185.63504780  .00019095  00000+0  56482-3 0  9999
2 42988  97.4530 322.6571 0001266 108.4549 251.6831 15.34954592485036
SKYSAT-C9               
1 42989U 17068C   26185.82758236  .00021589  00000+0  50673-3 0  9995
2 42989  97.4451 323.9565 0009277  77.6251 282.6034 15.42018637485470
SKYSAT-C8               
1 42990U 17068D   26185.84000391  .00017285  00000+0  47416-3 0  9990
2 42990  97.4548 322.7320 0001197  96.1071 264.0309 15.37337781485022
SKYSAT-C7               
1 42991U 17068E   26185.11815399  .00013456  00000+0  37044-3 0  9995
2 42991  97.4559 322.9903 0006593  56.7606 303.4269 15.37264492484979
SKYSAT-C6               
1 42992U 17068F   26185.82229056  .00015608  00000+0  47208-3 0  9997
2 42992  97.4596 323.6042 0005208 103.9495 256.2328 15.34283314485025
CARTOSAT-2F             
1 43111U 18004A   26185.99190747  .00006819  00000+0  32709-3 0  9998
2 43111  97.4772 245.4519 0001910 156.7921 203.3400 15.19211071470034
GAOFEN-1 02             
1 43259U 18031A   26185.98682036  .00000402  00000+0  65193-4 0  9993
2 43259  98.0515 248.4633 0002070 338.7530  21.3593 14.76459523445328
GAOFEN-1 03             
1 43260U 18031B   26185.96485222  .00000932  00000+0  14136-3 0  9999
2 43260  98.0509 248.2980 0003184  41.6750 318.4702 14.76452600445317
GAOFEN-1 04             
1 43262U 18031D   26185.94061465  .00000966  00000+0  14624-3 0  9997
2 43262  98.0516 248.4667 0001710  61.3587 298.7794 14.76460318445306
SENTINEL-3B             
1 43437U 18039A   26185.44165457  .00000138  00000+0  75028-4 0  9997
2 43437  98.6242 252.7259 0000891 116.8484 243.2787 14.26739817426582
GAOFEN-5 01             
1 43461U 18043A   26185.66747583  .00000509  00000+0  11478-3 0  9999
2 43461  98.4581 157.6218 0002625  52.0777 308.0659 14.60618723434244
GAOFEN-6                
1 43484U 18048A   26185.14927319  .00000270  00000+0  46409-4 0  9997
2 43484  98.0962 247.8248 0012019 112.9072 247.3408 14.76373246435899
